[{"OBJECT_NAME":"COSMOS 2544 (759)","OBJECT_ID":"2019-088A","EPOCH":"2026-04-02T11:28:37.465824","MEAN_MOTION":2.13086826,"ECCENTRICITY":0.00130768,"INCLINATION":65.5087,"RA_OF_ASC_NODE":76.2399,"ARG_OF_PERICENTER":256.6381,"MEAN_ANOMALY":103.2057,"EPHEMERIS_TYPE":0,"CLASSIFICATION_TYPE":"U","NORAD_CAT_ID":44850,"ELEMENT_SET_NO":999,"REV_AT_EPOCH":4910,"BSTAR":0,"MEAN_MOTION_DOT":1.0e-8,"MEAN_MOTION_DDOT":0},{"OBJECT_NAME":"BEIDOU-3 M19 (C41)","OBJECT_ID":"2019-090A","EPOCH":"2026-04-05T04:09:50.332608","MEAN_MOTION":1.86231756,"ECCENTRICITY":0.0020306,"INCLINATION":56.4976,"RA_OF_ASC_NODE":65.2019,"ARG_OF_PERICENTER":293.9017,"MEAN_ANOMALY":248.0667,"EPHEMERIS_TYPE":0,"CLASSIFICATION_TYPE":"U","NORAD_CAT_ID":44864,"ELEMENT_SET_NO":999,"REV_AT_EPOCH":4287,"BSTAR":0,"MEAN_MOTION_DOT":-3.8e-7,"MEAN_MOTION_DDOT":0},{"OBJECT_NAME":"BEIDOU-3 M20 (C42)","OBJECT_ID":"2019-090B","EPOCH":"2026-04-05T13:44:22.867296","MEAN_MOTION":1.86231595,"ECCENTRICITY":0.00177846,"INCLINATION":56.4994,"RA_OF_ASC_NODE":65.223,"ARG_OF_PERICENTER":305.7486,"MEAN_ANOMALY":233.3254,"EPHEMERIS_TYPE":0,"CLASSIFICATION_TYPE":"U","NORAD_CAT_ID":44865,"ELEMENT_SET_NO":999,"REV_AT_EPOCH":4286,"BSTAR":0,"MEAN_MOTION_DOT":-3.5e-7,"MEAN_MOTION_DDOT":0},{"OBJECT_NAME":"BEIDOU-3 G2 (C60)","OBJECT_ID":"2020-017A","EPOCH":"2026-04-05T14:50:16.546848","MEAN_MOTION":1.00272152,"ECCENTRICITY":0.00028652,"INCLINATION":2.7189,"RA_OF_ASC_NODE":46.1552,"ARG_OF_PERICENTER":338.0612,"MEAN_ANOMALY":112.3148,"EPHEMERIS_TYPE":0,"CLASSIFICATION_TYPE":"U","NORAD_CAT_ID":45344,"ELEMENT_SET_NO":999,"REV_AT_EPOCH":2253,"BSTAR":0,"MEAN_MOTION_DOT":-1.38e-6,"MEAN_MOTION_DDOT":0},{"OBJECT_NAME":"COSMOS 2545 (760)","OBJECT_ID":"2020-018A","EPOCH":"2026-03-31T07:51:28.166112","MEAN_MOTION":2.13102306,"ECCENTRICITY":0.000733,"INCLINATION":64.4015,"RA_OF_ASC_NODE":315.1566,"ARG_OF_PERICENTER":245.6005,"MEAN_ANOMALY":114.3786,"EPHEMERIS_TYPE":0,"CLASSIFICATION_TYPE":"U","NORAD_CAT_ID":45358,"ELEMENT_SET_NO":999,"REV_AT_EPOCH":4700,"BSTAR":0,"MEAN_MOTION_DOT":-3.4e-7,"MEAN_MOTION_DDOT":0},{"OBJECT_NAME":"BEIDOU-3 G3 (C61)","OBJECT_ID":"2020-040A","EPOCH":"2026-04-05T13:46:01.205184","MEAN_MOTION":1.00269592,"ECCENTRICITY":0.0004609,"INCLINATION":2.2693,"RA_OF_ASC_NODE":67.2286,"ARG_OF_PERICENTER":328.943,"MEAN_ANOMALY":114.7574,"EPHEMERIS_TYPE":0,"CLASSIFICATION_TYPE":"U","NORAD_CAT_ID":45807,"ELEMENT_SET_NO":999,"REV_AT_EPOCH":2134,"BSTAR":0,"MEAN_MOTION_DOT":-3.51e-6,"MEAN_MOTION_DDOT":0},{"OBJECT_NAME":"GPS BIII-3  (PRN 23)","OBJECT_ID":"2020-041A","EPOCH":"2026-04-04T16:39:43.206048","MEAN_MOTION":2.00560344,"ECCENTRICITY":0.00617895,"INCLINATION":56.6255,"RA_OF_ASC_NODE":31.7951,"ARG_OF_PERICENTER":205.1546,"MEAN_ANOMALY":336.5424,"EPHEMERIS_TYPE":0,"CLASSIFICATION_TYPE":"U","NORAD_CAT_ID":45854,"ELEMENT_SET_NO":999,"REV_AT_EPOCH":4256,"BSTAR":0,"MEAN_MOTION_DOT":-8.9e-7,"MEAN_MOTION_DDOT":0},{"OBJECT_NAME":"GALAXY 30 (WAAS/PRN 135)","OBJECT_ID":"2020-056C","EPOCH":"2026-04-05T11:46:38.705664","MEAN_MOTION":1.00271327,"ECCENTRICITY":0.00023671,"INCLINATION":0.0154,"RA_OF_ASC_NODE":197.1814,"ARG_OF_PERICENTER":184.5729,"MEAN_ANOMALY":223.6896,"EPHEMERIS_TYPE":0,"CLASSIFICATION_TYPE":"U","NORAD_CAT_ID":46114,"ELEMENT_SET_NO":999,"REV_AT_EPOCH":2056,"BSTAR":0,"MEAN_MOTION_DOT":0,"MEAN_MOTION_DDOT":0},{"OBJECT_NAME":"COSMOS 2547 (705K)","OBJECT_ID":"2020-075A","EPOCH":"2026-03-27T18:17:20.941152","MEAN_MOTION":2.13100219,"ECCENTRICITY":0.00073709,"INCLINATION":64.5985,"RA_OF_ASC_NODE":195.1905,"ARG_OF_PERICENTER":232.5213,"MEAN_ANOMALY":127.4084,"EPHEMERIS_TYPE":0,"CLASSIFICATION_TYPE":"U","NORAD_CAT_ID":46805,"ELEMENT_SET_NO":999,"REV_AT_EPOCH":4217,"BSTAR":0,"MEAN_MOTION_DOT":-3.1e-7,"MEAN_MOTION_DDOT":0},{"OBJECT_NAME":"GPS BIII-4  (PRN 14)","OBJECT_ID":"2020-078A","EPOCH":"2026-04-04T23:50:48.490656","MEAN_MOTION":2.00565254,"ECCENTRICITY":0.00699327,"INCLINATION":53.9939,"RA_OF_ASC_NODE":213.7458,"ARG_OF_PERICENTER":205.1668,"MEAN_ANOMALY":166.7977,"EPHEMERIS_TYPE":0,"CLASSIFICATION_TYPE":"U","NORAD_CAT_ID":46826,"ELEMENT_SET_NO":999,"REV_AT_EPOCH":4004,"BSTAR":0,"MEAN_MOTION_DOT":5.0e-8,"MEAN_MOTION_DDOT":0},{"OBJECT_NAME":"GPS BIII-5  (PRN 11)","OBJECT_ID":"2021-054A","EPOCH":"2026-03-28T01:21:33.319296","MEAN_MOTION":2.00573996,"ECCENTRICITY":0.0023817,"INCLINATION":55.2101,"RA_OF_ASC_NODE":335.7223,"ARG_OF_PERICENTER":231.1961,"MEAN_ANOMALY":354.6747,"EPHEMERIS_TYPE":0,"CLASSIFICATION_TYPE":"U","NORAD_CAT_ID":48859,"ELEMENT_SET_NO":999,"REV_AT_EPOCH":3512,"BSTAR":0,"MEAN_MOTION_DOT":-8.8e-7,"MEAN_MOTION_DDOT":0},{"OBJECT_NAME":"QZS-1R (QZSS/PRN 196)","OBJECT_ID":"2021-096A","EPOCH":"2026-04-05T06:35:21.120864","MEAN_MOTION":1.00280796,"ECCENTRICITY":0.0750098,"INCLINATION":37.3126,"RA_OF_ASC_NODE":80.6561,"ARG_OF_PERICENTER":270.3991,"MEAN_ANOMALY":76.8352,"EPHEMERIS_TYPE":0,"CLASSIFICATION_TYPE":"U","NORAD_CAT_ID":49336,"ELEMENT_SET_NO":999,"REV_AT_EPOCH":1627,"BSTAR":0,"MEAN_MOTION_DOT":-2.4e-6,"MEAN_MOTION_DDOT":0},{"OBJECT_NAME":"GSAT0223 (GALILEO 27)","OBJECT_ID":"2021-116A","EPOCH":"2026-04-04T22:59:50.619264","MEAN_MOTION":1.70475996,"ECCENTRICITY":0.00012633,"INCLINATION":57.1835,"RA_OF_ASC_NODE":343.6546,"ARG_OF_PERICENTER":288.2502,"MEAN_ANOMALY":249.3367,"EPHEMERIS_TYPE":0,"CLASSIFICATION_TYPE":"U","NORAD_CAT_ID":49809,"ELEMENT_SET_NO":999,"REV_AT_EPOCH":2693,"BSTAR":0,"MEAN_MOTION_DOT":-9.3e-7,"MEAN_MOTION_DDOT":0},{"OBJECT_NAME":"GSAT0224 (GALILEO 28)","OBJECT_ID":"2021-116B","EPOCH":"2026-04-05T08:39:38.507904","MEAN_MOTION":1.70476035,"ECCENTRICITY":0.00011776,"INCLINATION":57.1848,"RA_OF_ASC_NODE":343.6426,"ARG_OF_PERICENTER":35.048,"MEAN_ANOMALY":142.2428,"EPHEMERIS_TYPE":0,"CLASSIFICATION_TYPE":"U","NORAD_CAT_ID":49810,"ELEMENT_SET_NO":999,"REV_AT_EPOCH":2696,"BSTAR":0,"MEAN_MOTION_DOT":-9.2e-7,"MEAN_MOTION_DDOT":0},{"OBJECT_NAME":"COSMOS 2557 (706K)","OBJECT_ID":"2022-075A","EPOCH":"2026-04-05T08:58:05.712672","MEAN_MOTION":2.13102008,"ECCENTRICITY":0.00107303,"INCLINATION":64.3402,"RA_OF_ASC_NODE":317.0513,"ARG_OF_PERICENTER":283.4282,"MEAN_ANOMALY":76.499,"EPHEMERIS_TYPE":0,"CLASSIFICATION_TYPE":"U","NORAD_CAT_ID":52984,"ELEMENT_SET_NO":999,"REV_AT_EPOCH":2916,"BSTAR":0,"MEAN_MOTION_DOT":-4.7e-7,"MEAN_MOTION_DDOT":0},{"OBJECT_NAME":"COSMOS 2559 (707K)","OBJECT_ID":"2022-130A","EPOCH":"2026-04-02T09:03:42.068736","MEAN_MOTION":2.13101452,"ECCENTRICITY":0.00108595,"INCLINATION":64.3149,"RA_OF_ASC_NODE":317.2428,"ARG_OF_PERICENTER":177.921,"MEAN_ANOMALY":182.137,"EPHEMERIS_TYPE":0,"CLASSIFICATION_TYPE":"U","NORAD_CAT_ID":54031,"ELEMENT_SET_NO":999,"REV_AT_EPOCH":2707,"BSTAR":0,"MEAN_MOTION_DOT":-4.6e-7,"MEAN_MOTION_DDOT":0},{"OBJECT_NAME":"COSMOS 2564 (761)","OBJECT_ID":"2022-161A","EPOCH":"2026-04-03T15:05:27.392928","MEAN_MOTION":2.13101981,"ECCENTRICITY":0.00103271,"INCLINATION":64.7399,"RA_OF_ASC_NODE":195.1849,"ARG_OF_PERICENTER":215.7841,"MEAN_ANOMALY":144.1673,"EPHEMERIS_TYPE":0,"CLASSIFICATION_TYPE":"U","NORAD_CAT_ID":54377,"ELEMENT_SET_NO":999,"REV_AT_EPOCH":2604,"BSTAR":0,"MEAN_MOTION_DOT":1.5e-7,"MEAN_MOTION_DDOT":0}]
